[{"OBJECT_NAME":"LIME","OBJECT_ID":"2025-009AR","EPOCH":"2026-03-09T17:44:15.459648","MEAN_MOTION":15.28703313,"ECCENTRICITY":0.00016347,"INCLINATION":97.3985,"RA_OF_ASC_NODE":151.4831,"ARG_OF_PERICENTER":35.9029,"MEAN_ANOMALY":324.232,"EPHEMERIS_TYPE":0,"CLASSIFICATION_TYPE":"U","NORAD_CAT_ID":62648,"ELEMENT_SET_NO":999,"REV_AT_EPOCH":6376,"BSTAR":0.00047722827,"MEAN_MOTION_DOT":0.00013254,"MEAN_MOTION_DDOT":0},{"OBJECT_NAME":"STARLINK-34107","OBJECT_ID":"2025-099J","EPOCH":"2026-03-08T08:56:01.140288","MEAN_MOTION":15.27623637,"ECCENTRICITY":0.00013209,"INCLINATION":42.9974,"RA_OF_ASC_NODE":183.7627,"ARG_OF_PERICENTER":227.825,"MEAN_ANOMALY":132.2489,"EPHEMERIS_TYPE":0,"CLASSIFICATION_TYPE":"U","NORAD_CAT_ID":63960,"ELEMENT_SET_NO":999,"REV_AT_EPOCH":4713,"BSTAR":0.0019732509,"MEAN_MOTION_DOT":0.00054513,"MEAN_MOTION_DDOT":0}]
