LIME                    
1 62648U 25009AR  26068.73906781  .00013254  00000+0  47723-3 0  9995
2 62648  97.3985 151.4831 0001635  35.9029 324.2320 15.28703313 63766
STARLINK-34107          
1 63960U 25099J   26067.37223542  .00054513  00000+0  19733-2 0  9990
2 63960  42.9974 183.7627 0001320 227.8250 132.2489 15.27623637 47133
